*******************************************************************************
Ephemeris / WWW_USER Mon Mar 24 06:59:55 2025 Pasadena, USA      / Horizons    
*******************************************************************************
Target body name: Pluto (999)                     {source: plu060_merged}
Center body name: Earth (399)                     {source: DE441}
Center-site name: Mauna Kea
*******************************************************************************
Start time      : A.D. 2018-Sep-26 04:24:00.0000 UT      
Stop  time      : A.D. 2018-Sep-26 16:02:00.0000 UT      
Step-size       : 1 minutes
*******************************************************************************
Target pole/equ : IAU_PLUTO                       {East-longitude positive}
Target radii    : 1188.3, 1188.3, 1188.3 km       {Equator_a, b, pole_c}       
Center geodetic : 204.5278, 19.8260847, 4.21024   {E-lon(deg),Lat(deg),Alt(km)}
Center cylindric: 204.5278, 6006.35451, 2151.0229 {E-lon(deg),Dxy(km),Dz(km)}
Center pole/equ : ITRF93                          {East-longitude positive}
Center radii    : 6378.137, 6378.137, 6356.752 km {Equator_a, b, pole_c}       
Target primary  : Sun
Vis. interferer : MOON (R_eq= 1737.400) km        {source: DE441}
Rel. light bend : Sun                             {source: plu060_merged}
Rel. lght bnd GM: 1.3271E+11 km^3/s^2                                          
Atmos refraction: NO (AIRLESS)
RA format       : HMS
Time format     : CAL 
Calendar mode   : Mixed Julian/Gregorian
RTS-only print  : NO       
EOP file        : eop.250321.p250617                                           
EOP coverage    : DATA-BASED 1962-JAN-20 TO 2025-MAR-21. PREDICTS-> 2025-JUN-16
Units conversion: 1 au= 149597870.700 km, c= 299792.458 km/s, 1 day= 86400.0 s 
Table cut-offs 1: Elevation (-90.0deg=NO ),Airmass (>38.000=NO), Daylight (YES)
Table cut-offs 2: Solar elongation (  0.0,180.0=NO ),Local Hour Angle( 0.0=NO )
Table cut-offs 3: RA/DEC angular rate (     0.0=NO )                           
*******************************************************************************
 Date__(UT)__HR:MN     R.A._________(ICRF)_________DEC
******************************************************
$$SOE
 2018-Sep-26 11:27  m  19 20 07.730817 -22 06 55.86690
 2018-Sep-26 11:28  m  19 20 07.730459 -22 06 55.87122
 2018-Sep-26 11:29  m  19 20 07.730102 -22 06 55.87554
 2018-Sep-26 11:30  m  19 20 07.729745 -22 06 55.87987
 2018-Sep-26 11:31  m  19 20 07.729389 -22 06 55.88419
 2018-Sep-26 11:32  m  19 20 07.729032 -22 06 55.88851
 2018-Sep-26 11:33  m  19 20 07.728677 -22 06 55.89284
 2018-Sep-26 11:34  m  19 20 07.728322 -22 06 55.89716
 2018-Sep-26 11:35  m  19 20 07.727967 -22 06 55.90148
 2018-Sep-26 11:36  m  19 20 07.727612 -22 06 55.90580
 2018-Sep-26 11:37  m  19 20 07.727258 -22 06 55.91013
 2018-Sep-26 11:38  m  19 20 07.726904 -22 06 55.91445
 2018-Sep-26 11:39  m  19 20 07.726551 -22 06 55.91877
 2018-Sep-26 11:40  m  19 20 07.726198 -22 06 55.92309
 2018-Sep-26 11:41  m  19 20 07.725846 -22 06 55.92742
 2018-Sep-26 11:42  m  19 20 07.725494 -22 06 55.93174
 2018-Sep-26 11:43  m  19 20 07.725142 -22 06 55.93606
 2018-Sep-26 11:44  m  19 20 07.724791 -22 06 55.94038
 2018-Sep-26 11:45  m  19 20 07.724440 -22 06 55.94471
 2018-Sep-26 11:46  m  19 20 07.724090 -22 06 55.94903
 2018-Sep-26 11:47  m  19 20 07.723739 -22 06 55.95335
 2018-Sep-26 11:48  m  19 20 07.723390 -22 06 55.95767
 2018-Sep-26 11:49  m  19 20 07.723041 -22 06 55.96200
 2018-Sep-26 11:50  m  19 20 07.722692 -22 06 55.96632
 2018-Sep-26 11:51  m  19 20 07.722343 -22 06 55.97064
 2018-Sep-26 11:52  m  19 20 07.721995 -22 06 55.97497
 2018-Sep-26 11:53  m  19 20 07.721647 -22 06 55.97929
 2018-Sep-26 11:54  m  19 20 07.721300 -22 06 55.98361
 2018-Sep-26 11:55  m  19 20 07.720953 -22 06 55.98794
 2018-Sep-26 11:56  m  19 20 07.720607 -22 06 55.99226
 2018-Sep-26 11:57  m  19 20 07.720261 -22 06 55.99658
 2018-Sep-26 11:58  m  19 20 07.719915 -22 06 56.00091
 2018-Sep-26 11:59  m  19 20 07.719570 -22 06 56.00523
 2018-Sep-26 12:00  m  19 20 07.719225 -22 06 56.00955
 2018-Sep-26 12:01  m  19 20 07.718880 -22 06 56.01388
 2018-Sep-26 12:02  m  19 20 07.718536 -22 06 56.01820
 2018-Sep-26 12:03  m  19 20 07.718192 -22 06 56.02253
 2018-Sep-26 12:04  m  19 20 07.717849 -22 06 56.02685
 2018-Sep-26 12:05  m  19 20 07.717506 -22 06 56.03118
 2018-Sep-26 12:06  m  19 20 07.717164 -22 06 56.03550
 2018-Sep-26 12:07  m  19 20 07.716821 -22 06 56.03983
 2018-Sep-26 12:08  m  19 20 07.716480 -22 06 56.04415
 2018-Sep-26 12:09  m  19 20 07.716138 -22 06 56.04848
 2018-Sep-26 12:10  m  19 20 07.715797 -22 06 56.05280
 2018-Sep-26 12:11  m  19 20 07.715457 -22 06 56.05713
 2018-Sep-26 12:12  m  19 20 07.715117 -22 06 56.06145
 2018-Sep-26 12:13  m  19 20 07.714777 -22 06 56.06578
 2018-Sep-26 12:14  m  19 20 07.714438 -22 06 56.07011
 2018-Sep-26 12:15  m  19 20 07.714099 -22 06 56.07443
 2018-Sep-26 12:16  m  19 20 07.713760 -22 06 56.07876
 2018-Sep-26 12:17  m  19 20 07.713422 -22 06 56.08309
 2018-Sep-26 12:18  m  19 20 07.713084 -22 06 56.08742
 2018-Sep-26 12:19  m  19 20 07.712746 -22 06 56.09175
 2018-Sep-26 12:20  m  19 20 07.712409 -22 06 56.09607
 2018-Sep-26 12:21  m  19 20 07.712073 -22 06 56.10040
 2018-Sep-26 12:22  m  19 20 07.711737 -22 06 56.10473
 2018-Sep-26 12:23  m  19 20 07.711401 -22 06 56.10906
 2018-Sep-26 12:24  m  19 20 07.711065 -22 06 56.11339
 2018-Sep-26 12:25  m  19 20 07.710730 -22 06 56.11772
 2018-Sep-26 12:26  m  19 20 07.710395 -22 06 56.12205
 2018-Sep-26 12:27  m  19 20 07.710061 -22 06 56.12638
 2018-Sep-26 12:28  m  19 20 07.709727 -22 06 56.13071
 2018-Sep-26 12:29  m  19 20 07.709394 -22 06 56.13504
 2018-Sep-26 12:30  m  19 20 07.709060 -22 06 56.13938
 2018-Sep-26 12:31  m  19 20 07.708728 -22 06 56.14371
 2018-Sep-26 12:32  m  19 20 07.708395 -22 06 56.14804
 2018-Sep-26 12:33  m  19 20 07.708063 -22 06 56.15237
 2018-Sep-26 12:34  m  19 20 07.707732 -22 06 56.15671
 2018-Sep-26 12:35  m  19 20 07.707400 -22 06 56.16104
 2018-Sep-26 12:36  m  19 20 07.707070 -22 06 56.16537
 2018-Sep-26 12:37  m  19 20 07.706739 -22 06 56.16971
 2018-Sep-26 12:38  m  19 20 07.706409 -22 06 56.17404
 2018-Sep-26 12:39  m  19 20 07.706079 -22 06 56.17838
 2018-Sep-26 12:40  m  19 20 07.705750 -22 06 56.18271
 2018-Sep-26 12:41  m  19 20 07.705421 -22 06 56.18705
 2018-Sep-26 12:42  m  19 20 07.705093 -22 06 56.19139
 2018-Sep-26 12:43  m  19 20 07.704764 -22 06 56.19572
 2018-Sep-26 12:44  m  19 20 07.704437 -22 06 56.20006
 2018-Sep-26 12:45  m  19 20 07.704109 -22 06 56.20440
 2018-Sep-26 12:46  m  19 20 07.703782 -22 06 56.20874
 2018-Sep-26 12:47  m  19 20 07.703455 -22 06 56.21308
 2018-Sep-26 12:48  m  19 20 07.703129 -22 06 56.21742
 2018-Sep-26 12:49  m  19 20 07.702803 -22 06 56.22176
 2018-Sep-26 12:50  m  19 20 07.702478 -22 06 56.22610
 2018-Sep-26 12:51  m  19 20 07.702153 -22 06 56.23044
 2018-Sep-26 12:52  m  19 20 07.701828 -22 06 56.23478
 2018-Sep-26 12:53  m  19 20 07.701503 -22 06 56.23912
 2018-Sep-26 12:54  m  19 20 07.701179 -22 06 56.24347
 2018-Sep-26 12:55  m  19 20 07.700856 -22 06 56.24781
 2018-Sep-26 12:56  m  19 20 07.700532 -22 06 56.25215
 2018-Sep-26 12:57  m  19 20 07.700209 -22 06 56.25650
 2018-Sep-26 12:58  m  19 20 07.699887 -22 06 56.26084
 2018-Sep-26 12:59  m  19 20 07.699565 -22 06 56.26519
 2018-Sep-26 13:00  m  19 20 07.699243 -22 06 56.26953
 2018-Sep-26 13:01  m  19 20 07.698921 -22 06 56.27388
 2018-Sep-26 13:02  m  19 20 07.698600 -22 06 56.27823
 2018-Sep-26 13:03  m  19 20 07.698280 -22 06 56.28258
 2018-Sep-26 13:04  m  19 20 07.697959 -22 06 56.28693
 2018-Sep-26 13:05  m  19 20 07.697639 -22 06 56.29127
 2018-Sep-26 13:06  m  19 20 07.697320 -22 06 56.29562
 2018-Sep-26 13:07  m  19 20 07.697001 -22 06 56.29997
 2018-Sep-26 13:08  m  19 20 07.696682 -22 06 56.30433
 2018-Sep-26 13:09  m  19 20 07.696363 -22 06 56.30868
 2018-Sep-26 13:10  m  19 20 07.696045 -22 06 56.31303
 2018-Sep-26 13:11  m  19 20 07.695727 -22 06 56.31738
 2018-Sep-26 13:12  m  19 20 07.695410 -22 06 56.32174
 2018-Sep-26 13:13  m  19 20 07.695093 -22 06 56.32609
 2018-Sep-26 13:14  m  19 20 07.694776 -22 06 56.33045
 2018-Sep-26 13:15  m  19 20 07.694460 -22 06 56.33480
 2018-Sep-26 13:16  m  19 20 07.694144 -22 06 56.33916
 2018-Sep-26 13:17  m  19 20 07.693828 -22 06 56.34352
 2018-Sep-26 13:18  m  19 20 07.693513 -22 06 56.34787
 2018-Sep-26 13:19  m  19 20 07.693198 -22 06 56.35223
 2018-Sep-26 13:20  m  19 20 07.692884 -22 06 56.35659
 2018-Sep-26 13:21  m  19 20 07.692570 -22 06 56.36095
 2018-Sep-26 13:22  m  19 20 07.692256 -22 06 56.36531
 2018-Sep-26 13:23  m  19 20 07.691942 -22 06 56.36968
 2018-Sep-26 13:24  m  19 20 07.691629 -22 06 56.37404
 2018-Sep-26 13:25  m  19 20 07.691316 -22 06 56.37840
 2018-Sep-26 13:26  m  19 20 07.691004 -22 06 56.38276
 2018-Sep-26 13:27  m  19 20 07.690692 -22 06 56.38713
 2018-Sep-26 13:28  m  19 20 07.690380 -22 06 56.39150
 2018-Sep-26 13:29  m  19 20 07.690069 -22 06 56.39586
 2018-Sep-26 13:30  m  19 20 07.689758 -22 06 56.40023
 2018-Sep-26 13:31  m  19 20 07.689447 -22 06 56.40460
 2018-Sep-26 13:32  m  19 20 07.689137 -22 06 56.40897
 2018-Sep-26 13:33  m  19 20 07.688827 -22 06 56.41333
 2018-Sep-26 13:34  m  19 20 07.688517 -22 06 56.41770
 2018-Sep-26 13:35  m  19 20 07.688208 -22 06 56.42208
 2018-Sep-26 13:36  m  19 20 07.687899 -22 06 56.42645
 2018-Sep-26 13:37  m  19 20 07.687591 -22 06 56.43082
 2018-Sep-26 13:38  m  19 20 07.687282 -22 06 56.43519
 2018-Sep-26 13:39  m  19 20 07.686975 -22 06 56.43957
 2018-Sep-26 13:40  m  19 20 07.686667 -22 06 56.44394
 2018-Sep-26 13:41  m  19 20 07.686360 -22 06 56.44832
 2018-Sep-26 13:42  m  19 20 07.686053 -22 06 56.45270
 2018-Sep-26 13:43  m  19 20 07.685746 -22 06 56.45708
 2018-Sep-26 13:44  m  19 20 07.685440 -22 06 56.46145
 2018-Sep-26 13:45  m  19 20 07.685134 -22 06 56.46583
 2018-Sep-26 13:46  m  19 20 07.684829 -22 06 56.47021
 2018-Sep-26 13:47  m  19 20 07.684524 -22 06 56.47460
